{
  "type": "FeatureCollection",
  "features": [
    {
      "type": "Feature",
      "properties": {
        "norad_id": 38867,
        "name": "INTELSAT 23 (IS-23)",
        "group": "intelsat",
        "lat": 0.02918943127481953,
        "lon": 165.97194996406918,
        "alt_km": 35780.12684051157,
        "timestamp": "2025-12-06T09:34:16.585607+00:00",
        "meta_object_name": "INTELSAT 23 (IS-23)",
        "meta_object_id": "2012-057A",
        "meta_epoch": "2025-12-05T22:00:16.520832",
        "meta_mean_motion": 1.00275117,
        "meta_eccentricity": 0.00018173,
        "meta_inclination": 0.0473,
        "meta_ra_of_asc_node": 101.0294,
        "meta_arg_of_pericenter": 113.2051,
        "meta_mean_anomaly": 137.7844,
        "meta_ephemeris_type": 0,
        "meta_classification_type": "U",
        "meta_norad_cat_id": 38867,
        "meta_element_set_no": 999,
        "meta_rev_at_epoch": 4801,
        "meta_bstar": 0,
        "meta_mean_motion_dot": -2.75e-06,
        "meta_mean_motion_ddot": 0,
        "tle_line1": "1 38867U 12057A   25339.91685788 -.00000275  00000+0  00000+0 0  9994",
        "tle_line2": "2 38867   0.0473 101.0294 0001817 113.2051 137.7844  1.00275117 48016"
      },
      "geometry": {
        "type": "Point",
        "coordinates": [
          165.97194996406918,
          0.02918943127481953
        ]
      }
    },
    {
      "type": "Feature",
      "properties": {
        "norad_id": 39360,
        "name": "FM-6",
        "group": "intelsat",
        "lat": 0.0021435792233199776,
        "lon": 102.81739775967763,
        "alt_km": 35782.03966546686,
        "timestamp": "2025-12-06T09:34:16.585618+00:00",
        "meta_object_name": "FM-6",
        "meta_object_id": "2013-058A",
        "meta_epoch": "2025-12-05T21:42:18.242784",
        "meta_mean_motion": 1.00271217,
        "meta_eccentricity": 0.00029344,
        "meta_inclination": 0.0023,
        "meta_ra_of_asc_node": 65.4913,
        "meta_arg_of_pericenter": 107.3656,
        "meta_mean_anomaly": 111.5248,
        "meta_ephemeris_type": 0,
        "meta_classification_type": "U",
        "meta_norad_cat_id": 39360,
        "meta_element_set_no": 999,
        "meta_rev_at_epoch": 4413,
        "meta_bstar": 0,
        "meta_mean_motion_dot": -8e-08,
        "meta_mean_motion_ddot": 0,
        "tle_line1": "1 39360U 13058A   25339.90437781 -.00000008  00000+0  00000+0 0  9996",
        "tle_line2": "2 39360   0.0023  65.4913 0002934 107.3656 111.5248  1.00271217 44137"
      },
      "geometry": {
        "type": "Point",
        "coordinates": [
          102.81739775967763,
          0.0021435792233199776
        ]
      }
    },
    {
      "type": "Feature",
      "properties": {
        "norad_id": 40271,
        "name": "INTELSAT 30 (IS-30)",
        "group": "intelsat",
        "lat": 0.027409948038775236,
        "lon": 123.94542971903435,
        "alt_km": 35782.93254280389,
        "timestamp": "2025-12-06T09:34:16.585629+00:00",
        "meta_object_name": "INTELSAT 30 (IS-30)",
        "meta_object_id": "2014-062A",
        "meta_epoch": "2025-12-05T21:48:17.669376",
        "meta_mean_motion": 1.00269734,
        "meta_eccentricity": 0.0001097,
        "meta_inclination": 0.0145,
        "meta_ra_of_asc_node": 18.6109,
        "meta_arg_of_pericenter": 69.0496,
        "meta_mean_anomaly": 219.3147,
        "meta_ephemeris_type": 0,
        "meta_classification_type": "U",
        "meta_norad_cat_id": 40271,
        "meta_element_set_no": 999,
        "meta_rev_at_epoch": 484,
        "meta_bstar": 0,
        "meta_mean_motion_dot": -1.41e-06,
        "meta_mean_motion_ddot": 0,
        "tle_line1": "1 40271U 14062A   25339.90853784 -.00000141  00000+0  00000+0 0  9998",
        "tle_line2": "2 40271   0.0145  18.6109 0001097  69.0496 219.3147  1.00269734  4847"
      },
      "geometry": {
        "type": "Point",
        "coordinates": [
          123.94542971903435,
          0.027409948038775236
        ]
      }
    },
    {
      "type": "Feature",
      "properties": {
        "norad_id": 40333,
        "name": "DIRECTV 14",
        "group": "intelsat",
        "lat": 0.022871791718672055,
        "lon": 119.7728692839005,
        "alt_km": 35786.63605384405,
        "timestamp": "2025-12-06T09:34:16.585640+00:00",
        "meta_object_name": "DIRECTV 14",
        "meta_object_id": "2014-078B",
        "meta_epoch": "2025-12-05T21:47:02.789088",
        "meta_mean_motion": 1.0027009,
        "meta_eccentricity": 4.065e-05,
        "meta_inclination": 0.0168,
        "meta_ra_of_asc_node": 331.689,
        "meta_arg_of_pericenter": 240.0635,
        "meta_mean_anomaly": 90.7489,
        "meta_ephemeris_type": 0,
        "meta_classification_type": "U",
        "meta_norad_cat_id": 40333,
        "meta_element_set_no": 999,
        "meta_rev_at_epoch": 4010,
        "meta_bstar": 0,
        "meta_mean_motion_dot": -1.16e-06,
        "meta_mean_motion_ddot": 0,
        "tle_line1": "1 40333U 14078B   25339.90767117 -.00000116  00000+0  00000+0 0  9990",
        "tle_line2": "2 40333   0.0168 331.6890 0000406 240.0635  90.7489  1.00270090 40101"
      },
      "geometry": {
        "type": "Point",
        "coordinates": [
          119.7728692839005,
          0.022871791718672055
        ]
      }
    },
    {
      "type": "Feature",
      "properties": {
        "norad_id": 40663,
        "name": "DIRECTV 15",
        "group": "intelsat",
        "lat": 0.03227107591413396,
        "lon": 116.12618849385744,
        "alt_km": 35787.39125513933,
        "timestamp": "2025-12-06T09:34:16.585652+00:00",
        "meta_object_name": "DIRECTV 15",
        "meta_object_id": "2015-026A",
        "meta_epoch": "2025-12-05T21:46:02.883648",
        "meta_mean_motion": 1.00270121,
        "meta_eccentricity": 4.903e-05,
        "meta_inclination": 0.0401,
        "meta_ra_of_asc_node": 82.5154,
        "meta_arg_of_pericenter": 147.2691,
        "meta_mean_anomaly": 68.8202,
        "meta_ephemeris_type": 0,
        "meta_classification_type": "U",
        "meta_norad_cat_id": 40663,
        "meta_element_set_no": 999,
        "meta_rev_at_epoch": 3852,
        "meta_bstar": 0,
        "meta_mean_motion_dot": -9.3e-07,
        "meta_mean_motion_ddot": 0,
        "tle_line1": "1 40663U 15026A   25339.90697782 -.00000093  00000+0  00000+0 0  9994",
        "tle_line2": "2 40663   0.0401  82.5154 0000490 147.2691  68.8202  1.00270121 38522"
      },
      "geometry": {
        "type": "Point",
        "coordinates": [
          116.12618849385744,
          0.03227107591413396
        ]
      }
    },
    {
      "type": "Feature",
      "properties": {
        "norad_id": 40664,
        "name": "SKY MEXICO-1",
        "group": "intelsat",
        "lat": 0.020366866396941987,
        "lon": 140.20220111813188,
        "alt_km": 35794.38907058584,
        "timestamp": "2025-12-06T09:34:16.585663+00:00",
        "meta_object_name": "SKY MEXICO-1",
        "meta_object_id": "2015-026B",
        "meta_epoch": "2025-12-05T21:52:54.727392",
        "meta_mean_motion": 1.00269863,
        "meta_eccentricity": 0.00028538,
        "meta_inclination": 0.0148,
        "meta_ra_of_asc_node": 8.9741,
        "meta_arg_of_pericenter": 261.1309,
        "meta_mean_anomaly": 54.3171,
        "meta_ephemeris_type": 0,
        "meta_classification_type": "U",
        "meta_norad_cat_id": 40664,
        "meta_element_set_no": 999,
        "meta_rev_at_epoch": 3851,
        "meta_bstar": 0,
        "meta_mean_motion_dot": -2.25e-06,
        "meta_mean_motion_ddot": 0,
        "tle_line1": "1 40664U 15026B   25339.91174453 -.00000225  00000+0  00000+0 0  9998",
        "tle_line2": "2 40664   0.0148   8.9741 0002853 261.1309  54.3171  1.00269863 38517"
      },
      "geometry": {
        "type": "Point",
        "coordinates": [
          140.20220111813188,
          0.020366866396941987
        ]
      }
    },
    {
      "type": "Feature",
      "properties": {
        "norad_id": 40874,
        "name": "INTELSAT 34 (IS-34)",
        "group": "intelsat",
        "lat": -0.00954999993662748,
        "lon": 163.49346378092244,
        "alt_km": 35784.08189328389,
        "timestamp": "2025-12-06T09:34:16.585675+00:00",
        "meta_object_name": "INTELSAT 34 (IS-34)",
        "meta_object_id": "2015-039A",
        "meta_epoch": "2025-12-05T20:16:49.698624",
        "meta_mean_motion": 1.00271506,
        "meta_eccentricity": 5.383e-05,
        "meta_inclination": 0.0129,
        "meta_ra_of_asc_node": 325.8778,
        "meta_arg_of_pericenter": 215.7789,
        "meta_mean_anomaly": 141.944,
        "meta_ephemeris_type": 0,
        "meta_classification_type": "U",
        "meta_norad_cat_id": 40874,
        "meta_element_set_no": 999,
        "meta_rev_at_epoch": 3768,
        "meta_bstar": 0,
        "meta_mean_motion_dot": -2.76e-06,
        "meta_mean_motion_ddot": 0,
        "tle_line1": "1 40874U 15039A   25339.84501966 -.00000276  00000+0  00000+0 0  9996",
        "tle_line2": "2 40874   0.0129 325.8778 0000538 215.7789 141.9440  1.00271506 37681"
      },
      "geometry": {
        "type": "Point",
        "coordinates": [
          163.49346378092244,
          -0.00954999993662748
        ]
      }
    }
  ]
}